NORAD_CAT_ID,OBJECT_NAME,OBJECT_TYPE,EPOCH,MEAN_MOTION,ECCENTRICITY,INCLINATION,RA_OF_ASC_NODE,ARG_OF_PERICENTER,MEAN_ANOMALY,BSTAR,MEAN_MOTION_DOT,MEAN_MOTION_DDOT,TLE_LINE0,TLE_LINE1,TLE_LINE2,SEMIMAJOR_AXIS,PERIOD,APOGEE,PERIGEE,DECAYED
53164.0,STARLINK-4116,PAYLOAD,2022-10-14 14:00:01,15.08884409,0.0001802,53.2177,340.1461,42.3412,43.7811,-0.0045366,-0.00071856,0.0,0 STARLINK-4116,1 53164U 22083AJ  22287.58334491 -.00071856  00000-0 -45366-2 0  9997,2 53164  53.2177 340.1461 0001802  42.3412  43.7811 15.08884409  1307,6917.745,95.435,540.856,538.363,0.0
53164.0,STARLINK-4116,PAYLOAD,2022-10-14 22:00:00,15.08826157,0.0001730999999999,53.2182,338.6457,42.7514,54.9872,0.0015382999999999,0.0002427,0.0,0 STARLINK-4116,1 53164U 22083AJ  22287.91667824  .00024270  00000-0  15383-2 0  9995,2 53164  53.2182 338.6457 0001731  42.7514  54.9872 15.08826157  1305,6917.9230000000025,95.438,540.985,538.59,0.0
53164.0,STARLINK-4116,PAYLOAD,2022-10-15 06:00:00,15.08837604,0.0001702,53.2176,337.1531,44.187,65.145,-0.00010872,-2.018e-05,0.0,0 STARLINK-4116,1 53164U 22083AJ  22288.25001157 -.00002018  00000-0 -10872-3 0  9991,2 53164  53.2176 337.1531 0001702  44.1870  65.1450 15.08837604 14572,6917.888000000001,95.438,540.93,538.575,0.0
53164.0,STARLINK-4116,PAYLOAD,2022-10-15 14:00:01,15.08827182,0.0001945,53.2184,335.6543,41.3959,79.5498,0.0015194,0.00023968,0.0,0 STARLINK-4116,1 53164U 22083AJ  22288.58334491  .00023968  00000-0  15194-2 0  9993,2 53164  53.2184 335.6543 0001945  41.3959  79.5498 15.08827182  1301,6917.92,95.438,541.13,538.439,0.0
53164.0,STARLINK-4116,PAYLOAD,2022-10-15 22:00:01,15.0881578,0.000168,53.2188,334.1535,44.1855,88.4275,0.0020053,0.00031749,0.0,0 STARLINK-4116,1 53164U 22083AJ  22288.91668981  .00031749  00000-0  20053-2 0  9990,2 53164  53.2188 334.1535 0001680  44.1855  88.4275 15.08815780  1305,6917.954000000002,95.439,540.982,538.6569999999998,0.0
53164.0,STARLINK-4116,PAYLOAD,2022-10-16 14:00:01,15.08795475,0.0001837,53.2183,331.1635,37.6323,118.0894,0.0038234,0.00061014,0.0,0 STARLINK-4116,1 53164U 22083AJ  22289.58334491  .00061014  00000-0  38234-2 0  9998,2 53164  53.2183 331.1635 0001837  37.6323 118.0894 15.08795475  1304,6918.016,95.44,541.1519999999998,538.611,0.0
53164.0,STARLINK-4116,PAYLOAD,2022-10-16 22:00:00,15.08809294,0.0001601,53.2185,329.6654,42.0916,125.1896,0.0022796,0.00036148,0.0,0 STARLINK-4116,1 53164U 22083AJ  22289.91667824  .00036148  00000-0  22796-2 0  9990,2 53164  53.2185 329.6654 0001601  42.0916 125.1896 15.08809294  1302,6917.974,95.439,540.947,538.732,0.0
53164.0,STARLINK-4116,PAYLOAD,2022-10-17 14:00:01,15.08844952,0.0001886999999999,53.2179,326.6746,39.4985,150.9747,0.0016727,0.00026437,0.0,0 STARLINK-4116,1 53164U 22083AJ  22290.58334491  .00026437  00000-0  16727-2 0  9993,2 53164  53.2179 326.6746 0001887  39.4985 150.9747 15.08844952  1307,6917.865,95.437,541.036,538.425,0.0
53164.0,STARLINK-4116,PAYLOAD,2022-10-17 22:00:00,15.08831669,0.0001694,53.218,325.1764,45.3001,156.7828,-0.00010529,-1.963e-05,0.0,0 STARLINK-4116,1 53164U 22083AJ  22290.91667824 -.00001963  00000-0 -10529-3 0  9993,2 53164  53.2180 325.1764 0001694  45.3001 156.7828 15.08831669 14976,6917.906,95.438,540.943,538.599,0.0
53164.0,STARLINK-4116,PAYLOAD,2022-10-18 14:00:01,15.08810209,0.0001901,53.2177,322.1849,40.2443,185.0029,0.0027021,0.00042943,0.0,0 STARLINK-4116,1 53164U 22083AJ  22291.58334491  .00042943  00000-0  27021-2 0  9993,2 53164  53.2177 322.1849 0001901  40.2443 185.0029 15.08810209  1306,6917.971,95.439,541.1519999999998,538.521,0.0
53164.0,STARLINK-4116,PAYLOAD,2022-10-18 22:00:00,15.0881427,0.0001739,53.2177,320.6868,45.1604,191.6712,0.0029551,0.00047023,0.0,0 STARLINK-4116,1 53164U 22083AJ  22291.91667824  .00047023  00000-0  29551-2 0  9993,2 53164  53.2177 320.6868 0001739  45.1604 191.6712 15.08814270  1306,6917.959,95.439,541.0269999999998,538.621,0.0
53164.0,STARLINK-4116,PAYLOAD,2022-10-19 06:00:00,15.08855834,0.0001859,53.2177,319.1915,45.6073,202.8038,-0.0010093,-0.00016322,0.0,0 STARLINK-4116,1 53164U 22083AJ  22292.25001157 -.00016322  00000-0 -10093-2 0  9993,2 53164  53.2177 319.1915 0001859  45.6073 202.8038 15.08855834 15177,6917.831999999999,95.437,540.9830000000002,538.411,0.0
53164.0,STARLINK-4116,PAYLOAD,2022-10-19 14:00:01,15.08853504,0.0001952,53.2175,317.696,40.3305,219.6856,-0.00031899,-5.363e-05,0.0,0 STARLINK-4116,1 53164U 22083AJ  22292.58334491 -.00005363  00000-0 -31899-3 0  9990,2 53164  53.2175 317.6960 0001952  40.3305 219.6856 15.08853504  1308,6917.839,95.437,541.054,538.354,0.0
53164.0,STARLINK-4116,PAYLOAD,2022-10-19 22:00:00,15.08841791,0.0001771999999999,53.2176,316.2001,41.6606,229.9831,-0.0019183,-0.0003069,0.0,0 STARLINK-4116,1 53164U 22083AJ  22292.91667824 -.00030690  00000-0 -19183-2 0  9998,2 53164  53.2176 316.2001 0001772  41.6606 229.9831 15.08841791  1300,6917.875,95.437,540.966,538.514,0.0
53164.0,STARLINK-4116,PAYLOAD,2022-10-20 06:00:00,15.08860893,0.0001886999999999,53.2177,314.7026,43.118,240.1033,-0.0014820999999999,-0.00023812,0.0,0 STARLINK-4116,1 53164U 22083AJ  22293.25001157 -.00023812  00000-0 -14821-2 0  9999,2 53164  53.2177 314.7026 0001887  43.1180 240.1033 15.08860893 15322,6917.816999999999,95.436,540.987,538.376,0.0
53164.0,STARLINK-4116,PAYLOAD,2022-10-20 14:00:01,15.08843012,0.0001969,53.2174,313.2076,37.8597,256.9723,-0.0003919,-6.521e-05,0.0,0 STARLINK-4116,1 53164U 22083AJ  22293.58334491 -.00006521  00000-0 -39190-3 0  9990,2 53164  53.2174 313.2076 0001969  37.8597 256.9723 15.08843012  1309,6917.871,95.437,541.0980000000002,538.374,0.0
53164.0,STARLINK-4116,PAYLOAD,2022-10-20 22:00:00,15.08809522,0.0001779,53.2177,311.7094,42.7386,263.6882,0.0034546,0.00055076,0.0,0 STARLINK-4116,1 53164U 22083AJ  22293.91667824  .00055076  00000-0  34546-2 0  9992,2 53164  53.2177 311.7094 0001779  42.7386 263.6882 15.08809522  1304,6917.974,95.439,541.069,538.6080000000002,0.0
53164.0,STARLINK-4116,PAYLOAD,2022-10-21 06:00:00,15.08856133,0.000192,53.2181,310.2147,41.1499,276.853,-0.0014735999999999,-0.00023675,0.0,0 STARLINK-4116,1 53164U 22083AJ  22294.25001157 -.00023675  00000-0 -14736-2 0  9992,2 53164  53.2181 310.2147 0001920  41.1499 276.8530 15.08856133 15477,6917.831,95.437,541.024,538.368,0.0
53164.0,STARLINK-4116,PAYLOAD,2022-10-21 14:00:01,15.08849288,0.0001986999999999,53.2175,308.7184,36.5631,293.061,-0.00084117,-0.00013654,0.0,0 STARLINK-4116,1 53164U 22083AJ  22294.58334491 -.00013654  00000-0 -84117-3 0  9995,2 53164  53.2175 308.7184 0001987  36.5631 293.0610 15.08849288  1302,6917.852,95.437,541.092,538.342,0.0
53164.0,STARLINK-4116,PAYLOAD,2022-10-21 22:00:00,15.08817259,0.00018,53.2179,307.2197,42.1545,299.0647,0.0024678,0.00039181,0.0,0 STARLINK-4116,1 53164U 22083AJ  22294.91667824  .00039181  00000-0  24678-2 0  9997,2 53164  53.2179 307.2197 0001800  42.1545 299.0647 15.08817259  1304,6917.95,95.439,541.06,538.57,0.0
53164.0,STARLINK-4116,PAYLOAD,2022-10-22 06:00:00,15.08840867,0.0002018,53.218,305.7246,42.2497,310.5567,-0.0021603,-0.00034507,0.0,0 STARLINK-4116,1 53164U 22083AJ  22295.25001157 -.00034507  00000-0 -21603-2 0  9990,2 53164  53.2180 305.7246 0002018  42.2497 310.5567 15.08840867 15635,6917.878000000002,95.437,541.139,538.347,0.0
53164.0,STARLINK-4116,PAYLOAD,2022-10-22 14:00:01,15.08829281,0.0002088,53.2176,304.2284,40.134,324.246,0.00020798,3.022e-05,0.0,0 STARLINK-4116,1 53164U 22083AJ  22295.58334491  .00003022  00000-0  20798-3 0  9997,2 53164  53.2176 304.2284 0002088  40.1340 324.2460 15.08829281  1307,6917.913000000001,95.438,541.2230000000002,538.3340000000002,0.0
53164.0,STARLINK-4116,PAYLOAD,2022-10-22 22:00:00,15.08813675,0.0001901,53.2178,302.7305,46.6324,329.3432,0.0039936,0.000638,0.0,0 STARLINK-4116,1 53164U 22083AJ  22295.91667824  .00063800  00000-0  39936-2 0  9996,2 53164  53.2178 302.7305 0001901  46.6324 329.3432 15.08813675 15739,6917.9609999999975,95.439,541.141,538.511,0.0
53164.0,STARLINK-4116,PAYLOAD,2022-10-23 14:00:01,15.08880298,0.0002058,53.2174,299.7390000000001,40.8771,358.2989,-0.0036341,-0.00057727,0.0,0 STARLINK-4116,1 53164U 22083AJ  22296.58334491 -.00057727  00000-0 -36341-2 0  9991,2 53164  53.2174 299.7390 0002058  40.8771 358.2989 15.08880298 15834,6917.757,95.435,541.0459999999998,538.1990000000002,0.0
53164.0,STARLINK-4116,PAYLOAD,2022-10-23 22:00:00,15.08829383,0.0001848,53.2175,298.2411,46.3015,4.4982,0.0011789,0.00018519,0.0,0 STARLINK-4116,1 53164U 22083AJ  22296.91667824  .00018519  00000-0  11789-2 0  9990,2 53164  53.2175 298.2411 0001848  46.3015   4.4982 15.08829383  1309,6917.913000000001,95.438,541.056,538.499,0.0
53164.0,STARLINK-4116,PAYLOAD,2022-10-24 06:00:00,15.08841835,0.0002036,53.2174,296.7462,44.5541,17.8361,-0.0039799,-0.00063079,0.0,0 STARLINK-4116,1 53164U 22083AJ  22297.25001157 -.00063079  00000-0 -39799-2 0  9993,2 53164  53.2174 296.7462 0002036  44.5541  17.8361 15.08841835 15930,6917.875,95.437,541.148,538.331,0.0
53164.0,STARLINK-4116,PAYLOAD,2022-10-24 14:00:01,15.08811004,0.0002023,53.217,295.2497,41.8592,32.0947,-0.00059638,-9.76e-05,0.0,0 STARLINK-4116,1 53164U 22083AJ  22297.58334491 -.00009760  00000-0 -59638-3 0  9991,2 53164  53.2170 295.2497 0002023  41.8592  32.0947 15.08811004  1300,6917.969,95.439,541.234,538.435,0.0
53164.0,STARLINK-4116,PAYLOAD,2022-10-24 22:00:00,15.08790311,0.0001861,53.217,293.7519,48.4559,37.0592,0.0031284,0.00049785,0.0,0 STARLINK-4116,1 53164U 22083AJ  22297.91667824  .00049785  00000-0  31284-2 0  9992,2 53164  53.2170 293.7519 0001861  48.4559  37.0592 15.08790311 16037,6918.031999999997,95.441,541.185,538.61,0.0
53164.0,STARLINK-4116,PAYLOAD,2022-10-25 14:00:01,15.08834161,0.000206,53.2167,290.7604,44.3598,64.2739,-0.00098888,-0.0001599,0.0,0 STARLINK-4116,1 53164U 22083AJ  22298.58334491 -.00015990  00000-0 -98888-3 0  9994,2 53164  53.2167 290.7604 0002060  44.3598  64.2739 15.08834161 16133,6917.898,95.438,541.188,538.3380000000002,0.0
